[{"OBJECT_NAME":"OBJECT F","OBJECT_ID":"2023-072F","EPOCH":"2026-03-09T23:31:37.259904","MEAN_MOTION":15.29470958,"ECCENTRICITY":0.00062878,"INCLINATION":97.5173,"RA_OF_ASC_NODE":265.798,"ARG_OF_PERICENTER":19.0017,"MEAN_ANOMALY":341.1456,"EPHEMERIS_TYPE":0,"CLASSIFICATION_TYPE":"U","NORAD_CAT_ID":56748,"ELEMENT_SET_NO":999,"REV_AT_EPOCH":15460,"BSTAR":0.00043416252,"MEAN_MOTION_DOT":0.00012341,"MEAN_MOTION_DDOT":0},{"OBJECT_NAME":"STARLINK-31297","OBJECT_ID":"2024-044G","EPOCH":"2026-03-09T19:38:03.242112","MEAN_MOTION":15.27538531,"ECCENTRICITY":8.421e-5,"INCLINATION":42.9996,"RA_OF_ASC_NODE":106.4352,"ARG_OF_PERICENTER":114.0139,"MEAN_ANOMALY":246.0801,"EPHEMERIS_TYPE":0,"CLASSIFICATION_TYPE":"U","NORAD_CAT_ID":59158,"ELEMENT_SET_NO":999,"REV_AT_EPOCH":11361,"BSTAR":-3.6130173e-5,"MEAN_MOTION_DOT":-1.255e-5,"MEAN_MOTION_DDOT":0}]
